STARLINK-3238           
1 49734U 21115L   26068.53529932  .00002316  00000+0  16366-3 0  9993
2 49734  53.2191 149.8428 0001574 105.1106 255.0061 15.08822245235519
DISKSAT A               
1 67222U 25305D   26068.54789610  .00013824  00000+0  90452-3 0  9996
2 67222  45.0023 251.6019 0004082 318.1929  41.8634 15.07741062 12266
